COSMOS 2251 DEB         
1 34689U 93036YK  17345.77502284  .00000797  00000-0  58029-3 0  9996
2 34689  74.1018 107.1084 0296146 154.9880 329.1093 13.78714500439523
